KUIPER-00572            
1 69272U 26118F   26175.28735341  .00033139  00000+0  90213-3 0  9994
2 69272  51.8687  19.0115 0007207 203.4727 156.5932 15.37183821  5073
KUIPER-00581            
1 69273U 26118G   26175.29299333  .00013121  00000+0  36898-3 0  9990
2 69273  51.8672  19.0445 0008576 201.9801 158.0819 15.36798123  5167
KUIPER-00584            
1 69274U 26118H   26175.25002315 -.00023199  00000+0 -79577-3 0  9998
2 69274  51.8646  19.5674 0010757 216.5553  96.2344 15.29189788  3660
KUIPER-00587            
1 69275U 26118J   26175.29234735  .00027364  00000+0  75835-3 0  9995
2 69275  51.8645  19.0360 0007953 207.8484 152.2078 15.36724479  5071
KUIPER-00590            
1 69276U 26118K   26175.27262914  .00021939  00000+0  58487-3 0  9990
2 69276  51.8722  18.9159 0003679 183.3642 176.7321 15.38079787  5076
KUIPER-00592            
1 69277U 26118L   26175.26927837  .00027839  00000+0  73440-3 0  9993
2 69277  51.8708  18.8957 0003057 161.9230 198.1866 15.38265241  5075
KUIPER-00593            
1 69278U 26118M   26175.27019589  .00033737  00000+0  88834-3 0  9998
2 69278  51.8721  18.9020 0003360 175.8160 184.2856 15.38222615  5136
KUIPER-00594            
1 69279U 26118N   26175.25948063  .00026288  00000+0  68457-3 0  9997
2 69279  51.8714  18.8335 0000656  54.1484 305.9564 15.38698303  5072
KUIPER-00595            
1 69280U 26118P   26175.26219965  .00033489  00000+0  86888-3 0  9991
2 69280  51.8702  18.8508 0000810 236.3353 123.7558 15.38683814  5108
KUIPER-00596            
1 69281U 26118Q   26175.05521363 -.00105906  00000+0 -31901-2 0  9998
2 69281  51.8632  20.4372 0011168 211.8654 148.1657 15.34072035  5035
KUIPER-00597            
1 69282U 26118R   26175.28559157  .00023636  00000+0  64704-3 0  9991
2 69282  51.8671  18.9967 0007145 204.4890 155.5758 15.37196141  5077
KUIPER-00599            
1 69283U 26118S   26174.95634658  .00006507  00000+0  18508-3 0  9994
2 69283  51.8705  20.5469 0005563 190.8235 169.2633 15.37400322  5023
KUIPER-00600            
1 69284U 26118T   26175.29145660  .00029367  00000+0  80977-3 0  9991
2 69284  51.8648  19.0324 0008726 202.8728 157.1871 15.36836441  5077
KUIPER-00601            
1 69285U 26118U   26175.27654458  .00040202  00000+0  10709-2 0  9996
2 69285  51.8709  18.9449 0005040 196.3563 163.7262 15.37775561  5075
KUIPER-00602            
1 69286U 26118V   26175.26801913  .00022869  00000+0  60400-3 0  9999
2 69286  51.8687  18.8891 0002460 156.3924 203.7176 15.38345039  5074
KUIPER-00603            
1 69287U 26118W   26175.27798534  .00026799  00000+0  71915-3 0  9994
2 69287  51.8690  18.9512 0005291 192.1053 167.9807 15.37751463  5079
KUIPER-00605            
1 69288U 26118X   26175.28614869  .00032070  00000+0  87218-3 0  9996
2 69288  51.8698  19.0022 0007547 201.5974 158.4695 15.37228801  5074
KUIPER-00606            
1 69289U 26118Y   26175.27488116  .00018939  00000+0  50996-3 0  9991
2 69289  51.8723  18.9307 0004543 176.9969 183.1046 15.37867389  5075
KUIPER-00607            
1 69290U 26118Z   26175.27977798  .00026063  00000+0  70274-3 0  9990
2 69290  51.8695  18.9637 0005994 194.1026 165.9794 15.37615752  5071
KUIPER-00608            
1 69291U 26118AA  26174.98146506  .00032058  00000+0  93849-3 0  9997
2 69291  51.8618  20.6959 0007983 205.0787 154.9812 15.34924644  5024
KUIPER-00610            
1 69292U 26118AB  26175.26582940  .00030109  00000+0  79090-3 0  9993
2 69292  51.8719  18.8738 0001816 170.3845 189.7178 15.38356998  5070
KUIPER-00613            
1 69293U 26118AC  26175.18505515  .00057137  00000+0  16769-2 0  9991
2 69293  51.8606  19.8102 0009771 216.5196 143.5124 15.34561826  5053
KUIPER-00618            
1 69294U 26118AD  26174.87017680  .00012928  00000+0  34123-3 0  9992
2 69294  51.8729  20.7218 0001469 107.2307 252.8841 15.38806968  5014
KUIPER-00620            
1 69295U 26118AE  26175.26495665  .00026261  00000+0  69317-3 0  9998
2 69295  51.8722  18.8677 0001528 146.6069 213.5014 15.38281855  5077
STARLINK-37501          
1 69296U 26119A   26174.66668981 -.00014395  00000+0 -26340-3 0  9992
2 69296  97.2864 200.5582 0001559  94.9302 223.2305 15.49197756  4925
STARLINK-37496          
1 69297U 26119B   26175.25002315 -.00017353  00000+0 -31815-3 0  9992
2 69297  97.2857 201.1517 0001030  64.5251 276.5670 15.49184944  5026
STARLINK-37519          
1 69298U 26119C   26175.25286139 -.00239201  00000+0 -46646-2 0  9996
2 69298  97.2859 201.1563 0000366 281.4999  78.6211 15.48360987  5136
STARLINK-37455          
1 69299U 26119D   26175.25002315 -.00016235  00000+0 -29750-3 0  9997
2 69299  97.2858 201.0628 0001412  93.4324  39.7800 15.49185188  5022
STARLINK-37456          
1 69300U 26119E   26175.31977912  .00015197  00000+0  28030-3 0  9995
2 69300  97.2870 201.2172 0000559 104.9805 255.1508 15.49216047  5149
STARLINK-37630          
1 69301U 26119F   26175.32345958  .00025149  00000+0  46223-3 0  9998
2 69301  97.2847 201.0576 0000588  91.7455 268.3864 15.49212343  5131
