OBJECT_NAME,OBJECT_ID,EPOCH,MEAN_MOTION,ECCENTRICITY,INCLINATION,RA_OF_ASC_NODE,ARG_OF_PERICENTER,MEAN_ANOMALY,EPHEMERIS_TYPE,CLASSIFICATION_TYPE,NORAD_CAT_ID,ELEMENT_SET_NO,REV_AT_EPOCH,BSTAR,MEAN_MOTION_DOT,MEAN_MOTION_DDOT
KUIPER-00572,2026-118F,2026-06-24T06:53:47.334624,15.37183821,.0007207,51.8687,19.0115,203.4727,156.5932,0,U,69272,999,507,.90213336E-3,.33139E-3,0
KUIPER-00581,2026-118G,2026-06-24T07:01:54.623712,15.36798123,.00085765,51.8672,19.0445,201.9801,158.0819,0,U,69273,999,516,.36897535E-3,.13121E-3,0
KUIPER-00584,2026-118H,2026-06-24T06:00:02.000160,15.29189788,.00107578,51.8646,19.5674,216.5553,96.2344,0,U,69274,999,366,-.79577161E-3,-.23199E-3,0
KUIPER-00587,2026-118J,2026-06-24T07:00:58.811040,15.36724479,.00079534,51.8645,19.0360,207.8484,152.2078,0,U,69275,999,507,.75834614E-3,.27364E-3,0
KUIPER-00590,2026-118K,2026-06-24T06:32:35.157696,15.38079787,.00036794,51.8722,18.9159,183.3642,176.7321,0,U,69276,999,507,.58486666E-3,.21939E-3,0
KUIPER-00592,2026-118L,2026-06-24T06:27:45.651168,15.38265241,.0003057,51.8708,18.8957,161.9230,198.1866,0,U,69277,999,507,.73440184E-3,.27839E-3,0
KUIPER-00593,2026-118M,2026-06-24T06:29:04.924896,15.38222615,.00033604,51.8721,18.9020,175.8160,184.2856,0,U,69278,999,513,.88833664E-3,.33737E-3,0
KUIPER-00594,2026-118N,2026-06-24T06:13:39.126432,15.38698303,.00006561,51.8714,18.8335,54.1484,305.9564,0,U,69279,999,507,.68457357E-3,.26288E-3,0
KUIPER-00595,2026-118P,2026-06-24T06:17:34.049760,15.38683814,.00008101,51.8702,18.8508,236.3353,123.7558,0,U,69280,999,510,.86888189E-3,.33489E-3,0
KUIPER-00596,2026-118Q,2026-06-24T01:19:30.457632,15.34072035,.00111686,51.8632,20.4372,211.8654,148.1657,0,U,69281,999,503,-.3190105E-2,-.105906E-2,0
KUIPER-00597,2026-118R,2026-06-24T06:51:15.111648,15.37196141,.00071452,51.8671,18.9967,204.4890,155.5758,0,U,69282,999,507,.64704038E-3,.23636E-3,0
KUIPER-00599,2026-118S,2026-06-23T22:57:08.344512,15.37400322,.00055637,51.8705,20.5469,190.8235,169.2633,0,U,69283,999,502,.18507501E-3,.6507E-4,0
KUIPER-00600,2026-118T,2026-06-24T06:59:41.850240,15.36836441,.00087267,51.8648,19.0324,202.8728,157.1871,0,U,69284,999,507,.80976877E-3,.29367E-3,0
KUIPER-00601,2026-118U,2026-06-24T06:38:13.451712,15.37775561,.00050404,51.8709,18.9449,196.3563,163.7262,0,U,69285,999,507,.10709069E-2,.40202E-3,0
KUIPER-00602,2026-118V,2026-06-24T06:25:56.852832,15.38345039,.00024601,51.8687,18.8891,156.3924,203.7176,0,U,69286,999,507,.60399505E-3,.22869E-3,0
KUIPER-00603,2026-118W,2026-06-24T06:40:17.933376,15.37751463,.00052918,51.8690,18.9512,192.1053,167.9807,0,U,69287,999,507,.71914902E-3,.26799E-3,0
KUIPER-00605,2026-118X,2026-06-24T06:52:03.246816,15.37228801,.00075478,51.8698,19.0022,201.5974,158.4695,0,U,69288,999,507,.87218234E-3,.3207E-3,0
KUIPER-00606,2026-118Y,2026-06-24T06:35:49.732224,15.37867389,.00045438,51.8723,18.9307,176.9969,183.1046,0,U,69289,999,507,.50995861E-3,.18939E-3,0
KUIPER-00607,2026-118Z,2026-06-24T06:42:52.817472,15.37615752,.00059945,51.8695,18.9637,194.1026,165.9794,0,U,69290,999,507,.70273904E-3,.26063E-3,0
KUIPER-00608,2026-118AA,2026-06-23T23:33:18.581184,15.34924644,.00079831,51.8618,20.6959,205.0787,154.9812,0,U,69291,999,502,.9384871E-3,.32058E-3,0
KUIPER-00610,2026-118AB,2026-06-24T06:22:47.660160,15.38356998,.00018163,51.8719,18.8738,170.3845,189.7178,0,U,69292,999,507,.79090244E-3,.30109E-3,0
KUIPER-00613,2026-118AC,2026-06-24T04:26:28.764960,15.34561826,.00097713,51.8606,19.8102,216.5196,143.5124,0,U,69293,999,505,.16769045E-2,.57137E-3,0
KUIPER-00618,2026-118AD,2026-06-23T20:53:03.275520,15.38806968,.00014699,51.8729,20.7218,107.2307,252.8841,0,U,69294,999,501,.34122611E-3,.12928E-3,0
KUIPER-00620,2026-118AE,2026-06-24T06:21:32.254560,15.38281855,.00015289,51.8722,18.8677,146.6069,213.5014,0,U,69295,999,507,.69317132E-3,.26261E-3,0
STARLINK-37501,2026-119A,2026-06-23T16:00:01.999584,15.49197756,.00015595,97.2864,200.5582,94.9302,223.2305,0,U,69296,999,492,-.26340414E-3,-.14395E-3,0
STARLINK-37496,2026-119B,2026-06-24T06:00:02.000160,15.49184944,.00010307,97.2857,201.1517,64.5251,276.5670,0,U,69297,999,502,-.31815232E-3,-.17353E-3,0
STARLINK-37519,2026-119C,2026-06-24T06:04:07.224096,15.48360987,.00003665,97.2859,201.1563,281.4999,78.6211,0,U,69298,999,513,-.46646428E-2,-.239201E-2,0
STARLINK-37455,2026-119D,2026-06-24T06:00:02.000160,15.49185188,.00014126,97.2858,201.0628,93.4324,39.7800,0,U,69299,999,502,-.29750414E-3,-.16235E-3,0
STARLINK-37456,2026-119E,2026-06-24T07:40:28.915968,15.49216047,.00005595,97.2870,201.2172,104.9805,255.1508,0,U,69300,999,514,.2802951E-3,.15197E-3,0
STARLINK-37630,2026-119F,2026-06-24T07:45:46.907712,15.49212343,.00005889,97.2847,201.0576,91.7455,268.3864,0,U,69301,999,513,.4622283E-3,.25149E-3,0
